{
  "type": "FeatureCollection",
  "features": [
    {
      "type": "Feature",
      "geometry": {
        "type": "LineString",
        "coordinates": [[-73.985130, 40.758896], [-73.985428, 40.748817]]
      },
      "properties": { "name": "Broadway segment" }
    },
    {
      "type": "Feature",
      "geometry": {
        "type": "LineString",
        "coordinates": [[-73.971249, 40.783060], [-73.965355, 40.782865]]
      },
      "properties": { "name": "Central Park West segment" }
    }
  ]
}
